{
    "links": {
        "self": "http://www.neowsapp.com/rest/v1/neo/3797707?api_key=iIulBulltgU6a56xZRHN4H3l9WmuAYTsLGpBGhQ2"
    },
    "id": "3797707",
    "neo_reference_id": "3797707",
    "name": "(2018 BU)",
    "designation": "2018 BU",
    "nasa_jpl_url": "http://ssd.jpl.nasa.gov/sbdb.cgi?sstr=3797707",
    "absolute_magnitude_h": 25.9,
    "estimated_diameter": {
        "kilometers": {
            "estimated_diameter_min": 0.0175612318,
            "estimated_diameter_max": 0.0392681082
        },
        "meters": {
            "estimated_diameter_min": 17.561231848,
            "estimated_diameter_max": 39.2681081809
        },
        "miles": {
            "estimated_diameter_min": 0.0109120402,
            "estimated_diameter_max": 0.0244000636
        },
        "feet": {
            "estimated_diameter_min": 57.6155918963,
            "estimated_diameter_max": 128.8323800441
        }
    },
    "is_potentially_hazardous_asteroid": false,
    "close_approach_data": [
        {
            "close_approach_date": "2018-01-20",
            "close_approach_date_full": "2018-Jan-20 06:31",
            "epoch_date_close_approach": 1516429860000,
            "relative_velocity": {
                "kilometers_per_second": "7.0827481798",
                "kilometers_per_hour": "25497.8934472283",
                "miles_per_hour": "15843.3994033625"
            },
            "miss_distance": {
                "astronomical": "0.0523331812",
                "lunar": "20.3576074868",
                "kilometers": "7828932.437844044",
                "miles": "4864673.0389900472"
            },
            "orbiting_body": "Earth"
        }
    ],
    "orbital_data": {
        "orbit_id": "6",
        "orbit_determination_date": "2018-01-28 06:53:37",
        "first_observation_date": "2018-01-16",
        "last_observation_date": "2018-01-27",
        "data_arc_in_days": 11,
        "observations_used": 34,
        "orbit_uncertainty": "8",
        "minimum_orbit_intersection": ".0468752",
        "jupiter_tisserand_invariant": "5.025",
        "epoch_osculation": "2458136.5",
        "eccentricity": ".1926330132957046",
        "semi_major_axis": "1.27676607557531",
        "inclination": "12.50078858712519",
        "ascending_node_longitude": "300.2681904048376",
        "orbital_period": "526.9451709886054",
        "perihelion_distance": "1.030818779163507",
        "perihelion_argument": "182.8760752497496",
        "aphelion_distance": "1.522713371987114",
        "perihelion_time": "2458140.633001259824",
        "mean_anomaly": "357.1764036650242",
        "mean_motion": ".6831830327329912",
        "equinox": "J2000",
        "orbit_class": {
            "orbit_class_type": "AMO",
            "orbit_class_description": "Near-Earth asteroid orbits similar to that of 1221 Amor",
            "orbit_class_range": "1.017 AU < q (perihelion) < 1.3 AU"
        }
    },
    "is_sentry_object": false
}